FLOCK 4G-25             
1 62646U 25009AP  26187.68469181  .00009048  00000+0  31519-3 0  9999
2 62646  97.4007 269.6811 0001611 183.4938 176.6291 15.29887721 81901
FLOCK 4G-23             
1 62647U 25009AQ  26187.81622541  .00030375  00000+0  91479-3 0  9994
2 62647  97.3922 269.4896 0002694 188.9427 171.1768 15.34288156 81938
FLOCK 4G-34             
1 62650U 25009AT  26187.68781396  .00008597  00000+0  30171-3 0  9990
2 62650  97.3957 269.1800 0001547 184.1417 175.9811 15.29662370 81899
FLOCK 4G-21             
1 62651U 25009AU  26187.68855562  .00029762  00000+0  94972-3 0  9994
2 62651  97.3988 270.1428 0002320 215.9584 144.1502 15.32448642 81949
FLOCK 4G-31             
1 62652U 25009AV  26187.19323823  .00010529  00000+0  37114-3 0  9997
2 62652  97.3961 268.6617 0001091 173.8295 186.2959 15.29458987 81816
FLOCK 4G-4              
1 62659U 25009BC  26187.76783122  .00030960  00000+0  10096-2 0  9999
2 62659  97.3941 269.0166 0003928 218.3344 141.7619 15.31738738139503
FLOCK 4G-6              
1 62660U 25009BD  26187.70802399  .00008124  00000+0  28346-3 0  9998
2 62660  97.3932 269.0232 0002086 239.3928 120.7107 15.29869835139480
FLOCK 4G-2              
1 62661U 25009BE  26187.70353921  .00009055  00000+0  31230-3 0  9991
2 62661  97.4001 269.6493 0002953 237.6071 122.4884 15.30211304139516
FLOCK 4G-5              
1 62663U 25009BG  26187.76706142  .00008353  00000+0  28311-3 0  9992
2 62663  97.4020 270.1030 0002687 212.3270 147.7806 15.30804680 81939
FLOCK 4G-1              
1 62666U 25009BK  26187.81845245  .00007920  00000+0  27469-3 0  9991
2 62666  97.4016 269.7428 0003204 233.1866 126.9081 15.30072487 81914
FLOCK 4G-14             
1 62667U 25009BL  26187.19289623  .00011288  00000+0  39578-3 0  9991
2 62667  97.4017 268.9222 0003303 230.7288 129.3660 15.29610526 81808
FLOCK 4G-10             
1 62670U 25009BP  26187.72771319  .00007717  00000+0  27066-3 0  9993
2 62670  97.3915 268.7623 0002985 251.2838 108.8079 15.29715999139524
FLOCK 4G-36             
1 62675U 25009BU  26187.85291729  .00008686  00000+0  30452-3 0  9993
2 62675  97.4005 269.5012 0003546 234.5813 125.5096 15.29690850 81903
FLOCK 4G-15             
1 62678U 25009BX  26187.72952046  .00008137  00000+0  28467-3 0  9992
2 62678  97.4009 269.5196 0003767 230.7386 129.3520 15.29778680139536
FLOCK 4G-30             
1 62679U 25009BY  26187.69432378  .00035122  00000+0  10833-2 0  9991
2 62679  97.3911 268.9685 0003478 225.6107 134.4851 15.33494913139530
FLOCK 4G-18             
1 62680U 25009BZ  26187.69912028  .00032903  00000+0  10709-2 0  9994
2 62680  97.4003 269.3804 0005281 241.4170 118.6541 15.31781764139523
